{"type": "FeatureCollection", "features": [{"type": "Feature", "id": 0, "geometry": {"type": "Polygon", "coordinates": [[[-101.42422354981774, 26.843752951072485], [-101.42425701364084, 26.84374951208621], [-101.4242424721334, 26.843666673022028], [-101.42421183494689, 26.843652872819447], [-101.42422354981774, 26.843752951072485]]]}, "properties": {"FID": 0, "FID_Jardin": 0, "Nombre": " ", "FID_Jard_1": -1, "Nombre_1": " ", "FID_Jard_2": -1, "Nombre_12": " ", "FID_Jard_3": -1, "Nombre__13": " ", "FID_Arbole": -1, "Nombre__14": " ", "FID_Jard_4": -1, "Nombre__15": "Jardin_57", "Turno": "1"}}, {"type": "Feature", "id": 1, "geometry": {"type": "Polygon", "coordinates": [[[-101.42416868947709, 26.84350176141281], [-101.42420301719913, 26.843463926205196], [-101.42415767454787, 26.843209708191317], [-101.42410312179943, 26.843197750620917], [-101.42416868947709, 26.84350176141281]]]}, "properties": {"FID": 1, "FID_Jardin": 1, "Nombre": " ", "FID_Jard_1": -1, "Nombre_1": " ", "FID_Jard_2": -1, "Nombre_12": " ", "FID_Jard_3": -1, "Nombre__13": " ", "FID_Arbole": -1, "Nombre__14": " ", "FID_Jard_4": -1, "Nombre__15": "Jardin_57", "Turno": "1"}}, {"type": "Feature", "id": 2, "geometry": {"type": "Polygon", "coordinates": [[[-101.42377450714068, 26.84366466940618], [-101.42377814797663, 26.84376058847074], [-101.42380203328864, 26.843757313820916], [-101.42380274480495, 26.843715757395483], [-101.4238378050602, 26.843712291136477], [-101.42383501857861, 26.843656469092917], [-101.42377450714068, 26.84366466940618]]]}, "properties": {"FID": 2, "FID_Jardin": -1, "Nombre": " ", "FID_Jard_1": 0, "Nombre_1": " ", "FID_Jard_2": -1, "Nombre_12": " ", "FID_Jard_3": -1, "Nombre__13": " ", "FID_Arbole": -1, "Nombre__14": " ", "FID_Jard_4": -1, "Nombre__15": "Jardin_VIGILANCIA", "Turno": "2"}}, {"type": "Feature", "id": 3, "geometry": {"type": "Polygon", "coordinates": [[[-101.42353718864466, 26.843469612366977], [-101.42355289887844, 26.843532375660338], [-101.42366118080888, 26.843517626203464], [-101.42365173414629, 26.843449025299986], [-101.42353718864466, 26.843469612366977]]]}, "properties": {"FID": 3, "FID_Jardin": -1, "Nombre": " ", "FID_Jard_1": -1, "Nombre_1": " ", "FID_Jard_2": 0, "Nombre_12": " ", "FID_Jard_3": -1, "Nombre__13": " ", "FID_Arbole": -1, "Nombre__14": " ", "FID_Jard_4": -1, "Nombre__15": " Jardin_GERENCIA", "Turno": "2"}}, {"type": "Feature", "id": 4, "geometry": {"type": "Polygon", "coordinates": [[[-101.4233742213523, 26.843316257128794], [-101.42347482612391, 26.84331596502764], [-101.42347439899359, 26.843295916513], [-101.42355428083779, 26.8432974121732], [-101.42354142786726, 26.84321884173525], [-101.42346627430605, 26.8432143998875], [-101.4234709010681, 26.843281650880876], [-101.42337204528303, 26.843289075794875], [-101.4233742213523, 26.843316257128794]]]}, "properties": {"FID": 4, "FID_Jardin": -1, "Nombre": " ", "FID_Jard_1": -1, "Nombre_1": " ", "FID_Jard_2": -1, "Nombre_12": " ", "FID_Jard_3": 0, "Nombre__13": " ", "FID_Arbole": -1, "Nombre__14": " ", "FID_Jard_4": -1, "Nombre__15": "Jardin_OSOYER", "Turno": "3"}}, {"type": "Feature", "id": 5, "geometry": {"type": "Polygon", "coordinates": [[[-101.42338279420659, 26.843718659476007], [-101.4236974419714, 26.843720427975416], [-101.42369707581966, 26.84370324353808], [-101.4233823975937, 26.843700042997863], [-101.42338279420659, 26.843718659476007]]]}, "properties": {"FID": 5, "FID_Jardin": -1, "Nombre": " ", "FID_Jard_1": -1, "Nombre_1": " ", "FID_Jard_2": -1, "Nombre_12": " ", "FID_Jard_3": -1, "Nombre__13": " ", "FID_Arbole": 0, "Nombre__14": " ", "FID_Jard_4": -1, "Nombre__15": "Arboles_EST", "Turno": "3"}}, {"type": "Feature", "id": 6, "geometry": {"type": "Polygon", "coordinates": [[[-101.4238185133902, 26.843331561073022], [-101.42385333089547, 26.843541550348434], [-101.42388206644658, 26.843541057643762], [-101.42384556093042, 26.843326799641883], [-101.4238185133902, 26.843331561073022]]]}, "properties": {"FID": 6, "FID_Jardin": -1, "Nombre": " ", "FID_Jard_1": -1, "Nombre_1": " ", "FID_Jard_2": -1, "Nombre_12": " ", "FID_Jard_3": -1, "Nombre__13": " ", "FID_Arbole": -1, "Nombre__14": " ", "FID_Jard_4": 0, "Nombre__15": "Jardin_Recepcion", "Turno": "4"}}, {"type": "Feature", "id": 7, "geometry": {"type": "Polygon", "coordinates": [[[-101.42379188197303, 26.843205952440833], [-101.42380157279403, 26.84328600962411], [-101.42383657189022, 26.84327967930132], [-101.42382694207289, 26.843202486194844], [-101.42379188197303, 26.843205952440833]]]}, "properties": {"FID": 7, "FID_Jardin": -1, "Nombre": " ", "FID_Jard_1": -1, "Nombre_1": " ", "FID_Jard_2": -1, "Nombre_12": " ", "FID_Jard_3": -1, "Nombre__13": " ", "FID_Arbole": -1, "Nombre__14": " ", "FID_Jard_4": 1, "Nombre__15": "Jardin_Recepcion", "Turno": "4"}}]}